{
  "norad_id": 49115,
  "name": "TJS-7",
  "history": [
    {
      "epoch": "2026-03-28T21:09:06.467040Z",
      "apogee_km": 35795.23922440852,
      "perigee_km": 35778.00564393259,
      "latitude_deg": -0.22093812182449044,
      "longitude_deg": -99.43837677526129,
      "height_km": 35779.319144313406,
      "semi_major_axis_km": 42164.75943417056,
      "eccentricity": 0.00020436,
      "inclination_deg": 0.3012,
      "raan_deg": 87.1547,
      "arg_perigee_deg": 279.0471,
      "mean_anomaly_deg": 37.8943,
      "mean_motion_rev_day": 1.00271687
    },
    {
      "epoch": "2026-03-29T05:18:06.179904Z",
      "apogee_km": 35795.164474790676,
      "perigee_km": 35778.06245200272,
      "latitude_deg": 0.2896647083233401,
      "longitude_deg": -99.44519300605218,
      "height_km": 35794.14910634552,
      "semi_major_axis_km": 42164.7504633967,
      "eccentricity": 0.0002028,
      "inclination_deg": 0.3022,
      "raan_deg": 87.1471,
      "arg_perigee_deg": 279.4386,
      "mean_anomaly_deg": 160.0944,
      "mean_motion_rev_day": 1.00271719
    },
    {
      "epoch": "2026-03-30T05:36:16.460640Z",
      "apogee_km": 35795.17688611158,
      "perigee_km": 35778.015839632884,
      "latitude_deg": 0.29665348534961156,
      "longitude_deg": -99.44696894455944,
      "height_km": 35794.370492890455,
      "semi_major_axis_km": 42164.73336287223,
      "eccentricity": 0.0002035,
      "inclination_deg": 0.3051,
      "raan_deg": 87.1353,
      "arg_perigee_deg": 280.3683,
      "mean_anomaly_deg": 164.7188,
      "mean_motion_rev_day": 1.0027178
    },
    {
      "epoch": "2026-03-30T05:40:27.902784Z",
      "apogee_km": 35795.17674485763,
      "perigee_km": 35778.01654155951,
      "latitude_deg": 0.2975381495424563,
      "longitude_deg": -99.4473074867786,
      "height_km": 35794.40923792863,
      "semi_major_axis_km": 42164.73364320857,
      "eccentricity": 0.00020349,
      "inclination_deg": 0.3051,
      "raan_deg": 87.1351,
      "arg_perigee_deg": 280.3979,
      "mean_anomaly_deg": 165.74,
      "mean_motion_rev_day": 1.00271779
    },
    {
      "epoch": "2026-03-30T10:48:30.924288Z",
      "apogee_km": 35795.198390125595,
      "perigee_km": 35777.99433561887,
      "latitude_deg": 0.11103430094394279,
      "longitude_deg": -99.4735555916021,
      "height_km": 35790.080715500735,
      "semi_major_axis_km": 42164.73336287223,
      "eccentricity": 0.00020401,
      "inclination_deg": 0.3058,
      "raan_deg": 87.1414,
      "arg_perigee_deg": 281.0421,
      "mean_anomaly_deg": 242.3132,
      "mean_motion_rev_day": 1.0027178
    }
  ]
}